{"type": "FeatureCollection", "features": [ {"type": "Feature", "properties": {"norad_id": 40938, "name": "BEIDOU-3S IGSO-2S (C56)", "group": "gnss", "lat": 38.948210982092895, "lon": 37.213127299497344, "alt_km": 35669.66398745671, "timestamp": "2025-12-27T12:55:14.746655+00:00", "meta": {"OBJECT_NAME": "BEIDOU-3S IGSO-2S (C56)", "OBJECT_ID": "2015-053A", "EPOCH": "2025-12-26T16:11:41.602848", "MEAN_MOTION": 1.00266904, "ECCENTRICITY": 0.0060693, "INCLINATION": 49.4889, "RA_OF_ASC_NODE": 260.8421, "ARG_OF_PERICENTER": 188.2714, "MEAN_ANOMALY": 344.9526, "EPHEMERIS_TYPE": 0, "CLASSIFICATION_TYPE": "U", "NORAD_CAT_ID": 40938, "ELEMENT_SET_NO": 999, "REV_AT_EPOCH": 3762, "BSTAR": 0, "MEAN_MOTION_DOT": -1.24e-06, "MEAN_MOTION_DDOT": 0}, "tle": {"line1": "1 40938U 15053A   25360.67478707 -.00000124  00000+0  00000+0 0  9996", "line2": "2 40938  49.4889 260.8421 0060693 188.2714 344.9526  1.00266904 37625"}}, "geometry": {"type": "Point", "coordinates": [37.213127299497344, 38.948210982092895]}}, {"type": "Feature", "properties": {"norad_id": 41019, "name": "GPS BIIF-11 (PRN 10)", "group": "gnss", "lat": -10.923290902552273, "lon": -135.3113314108095, "alt_km": 19947.31805291148, "timestamp": "2025-12-27T12:55:14.746666+00:00", "meta": {"OBJECT_NAME": "GPS BIIF-11 (PRN 10)", "OBJECT_ID": "2015-062A", "EPOCH": "2025-12-26T06:30:53.631648", "MEAN_MOTION": 2.00567029, "ECCENTRICITY": 0.0111129, "INCLINATION": 56.842, "RA_OF_ASC_NODE": 37.479, "ARG_OF_PERICENTER": 230.2895, "MEAN_ANOMALY": 128.7854, "EPHEMERIS_TYPE": 0, "CLASSIFICATION_TYPE": "U", "NORAD_CAT_ID": 41019, "ELEMENT_SET_NO": 999, "REV_AT_EPOCH": 7436, "BSTAR": 0, "MEAN_MOTION_DOT": -4.9e-07, "MEAN_MOTION_DDOT": 0}, "tle": {"line1": "1 41019U 15062A   25360.27145407 -.00000049  00000+0  00000+0 0  9997", "line2": "2 41019  56.8420  37.4790 0111129 230.2895 128.7854  2.00567029 74362"}}, "geometry": {"type": "Point", "coordinates": [-135.3113314108095, -10.923290902552273]}}, {"type": "Feature", "properties": {"norad_id": 41028, "name": "GSAT-15 (GAGAN/PRN 139)", "group": "gnss", "lat": 0.012103627772332107, "lon": 23.588679462011175, "alt_km": 35794.751641996576, "timestamp": "2025-12-27T12:55:14.746678+00:00", "meta": {"OBJECT_NAME": "GSAT-15 (GAGAN/PRN 139)", "OBJECT_ID": "2015-065A", "EPOCH": "2025-12-27T06:35:42.130752", "MEAN_MOTION": 1.00268015, "ECCENTRICITY": 0.00025551, "INCLINATION": 0.0154, "RA_OF_ASC_NODE": 0.794, "ARG_OF_PERICENTER": 247.9825, "MEAN_ANOMALY": 39.6566, "EPHEMERIS_TYPE": 0, "CLASSIFICATION_TYPE": "U", "NORAD_CAT_ID": 41028, "ELEMENT_SET_NO": 999, "REV_AT_EPOCH": 3707, "BSTAR": 0, "MEAN_MOTION_DOT": 0, "MEAN_MOTION_DDOT": 0}, "tle": {"line1": "1 41028U 15065A   25361.27479318  .00000000  00000+0  00000+0 0  9998", "line2": "2 41028   0.0154   0.7940 0002555 247.9825  39.6566  1.00268015 37076"}}, "geometry": {"type": "Point", "coordinates": [23.588679462011175, 0.012103627772332107]}}, {"type": "Feature", "properties": {"norad_id": 41174, "name": "GSAT0209 (GALILEO 12)", "group": "gnss", "lat": -36.642055824014605, "lon": -43.5853875750186, "alt_km": 23229.909632715084, "timestamp": "2025-12-27T12:55:14.746692+00:00", "meta": {"OBJECT_NAME": "GSAT0209 (GALILEO 12)", "OBJECT_ID": "2015-079A", "EPOCH": "2025-12-27T04:04:26.723136", "MEAN_MOTION": 1.70474435, "ECCENTRICITY": 0.00026732, "INCLINATION": 55.7206, "RA_OF_ASC_NODE": 105.9849, "ARG_OF_PERICENTER": 340.8041, "MEAN_ANOMALY": 19.1801, "EPHEMERIS_TYPE": 0, "CLASSIFICATION_TYPE": "U", "NORAD_CAT_ID": 41174, "ELEMENT_SET_NO": 999, "REV_AT_EPOCH": 6184, "BSTAR": 0, "MEAN_MOTION_DOT": 1.5e-07, "MEAN_MOTION_DDOT": 0}, "tle": {"line1": "1 41174U 15079A   25361.16975374  .00000015  00000+0  00000+0 0  9992", "line2": "2 41174  55.7206 105.9849 0002673 340.8041  19.1801  1.70474435 61842"}}, "geometry": {"type": "Point", "coordinates": [-43.5853875750186, -36.642055824014605]}}, {"type": "Feature", "properties": {"norad_id": 41175, "name": "GSAT0208 (GALILEO 11)", "group": "gnss", "lat": 55.720967386494586, "lon": -162.00468423951565, "alt_km": 23217.91654959711, "timestamp": "2025-12-27T12:55:14.746705+00:00", "meta": {"OBJECT_NAME": "GSAT0208 (GALILEO 11)", "OBJECT_ID": "2015-079B", "EPOCH": "2025-12-26T19:16:48.817056", "MEAN_MOTION": 1.70474041, "ECCENTRICITY": 0.00020772, "INCLINATION": 55.719, "RA_OF_ASC_NODE": 105.9921, "ARG_OF_PERICENTER": 340.7165, "MEAN_ANOMALY": 19.2705, "EPHEMERIS_TYPE": 0, "CLASSIFICATION_TYPE": "U", "NORAD_CAT_ID": 41175, "ELEMENT_SET_NO": 999, "REV_AT_EPOCH": 6225, "BSTAR": 0, "MEAN_MOTION_DOT": 1.7e-07, "MEAN_MOTION_DDOT": 0}, "tle": {"line1": "1 41175U 15079B   25360.80334279  .00000017  00000+0  00000+0 0  9998", "line2": "2 41175  55.7190 105.9921 0002077 340.7165  19.2705  1.70474041 62253"}}, "geometry": {"type": "Point", "coordinates": [-162.00468423951565, 55.720967386494586]}}, {"type": "Feature", "properties": {"norad_id": 41241, "name": "IRNSS-1E", "group": "gnss", "lat": -10.871870627730285, "lon": 44.97668363242184, "alt_km": 35862.827797447106, "timestamp": "2025-12-27T12:55:14.746716+00:00", "meta": {"OBJECT_NAME": "IRNSS-1E", "OBJECT_ID": "2016-003A", "EPOCH": "2025-12-26T15:54:48.991392", "MEAN_MOTION": 1.00277951, "ECCENTRICITY": 0.00209932, "INCLINATION": 32.8574, "RA_OF_ASC_NODE": 62.2508, "ARG_OF_PERICENTER": 189.6283, "MEAN_ANOMALY": 193.9579, "EPHEMERIS_TYPE": 0, "CLASSIFICATION_TYPE": "U", "NORAD_CAT_ID": 41241, "ELEMENT_SET_NO": 999, "REV_AT_EPOCH": 3635, "BSTAR": 0, "MEAN_MOTION_DOT": -2.94e-06, "MEAN_MOTION_DDOT": 0}, "tle": {"line1": "1 41241U 16003A   25360.66306703 -.00000294  00000+0  00000+0 0  9993", "line2": "2 41241  32.8574  62.2508 0020993 189.6283 193.9579  1.00277951 36358"}}, "geometry": {"type": "Point", "coordinates": [44.97668363242184, -10.871870627730285]}}, {"type": "Feature", "properties": {"norad_id": 41328, "name": "GPS BIIF-12 (PRN 32)", "group": "gnss", "lat": 37.02213759702825, "lon": -115.03539641757682, "alt_km": 20263.952598688702, "timestamp": "2025-12-27T12:55:14.746728+00:00", "meta": {"OBJECT_NAME": "GPS BIIF-12 (PRN 32)", "OBJECT_ID": "2016-007A", "EPOCH": "2025-12-25T20:32:16.174464", "MEAN_MOTION": 2.00559967, "ECCENTRICITY": 0.00928247, "INCLINATION": 55.4133, "RA_OF_ASC_NODE": 96.3364, "ARG_OF_PERICENTER": 243.9276, "MEAN_ANOMALY": 115.1304, "EPHEMERIS_TYPE": 0, "CLASSIFICATION_TYPE": "U", "NORAD_CAT_ID": 41328, "ELEMENT_SET_NO": 999, "REV_AT_EPOCH": 7236, "BSTAR": 0, "MEAN_MOTION_DOT": 1.1e-07, "MEAN_MOTION_DDOT": 0}, "tle": {"line1": "1 41328U 16007A   25359.85574276  .00000011  00000+0  00000+0 0  9990", "line2": "2 41328  55.4133  96.3364 0092824 243.9276 115.1304  2.00559967 72366"}}, "geometry": {"type": "Point", "coordinates": [-115.03539641757682, 37.02213759702825]}}, {"type": "Feature", "properties": {"norad_id": 41330, "name": "COSMOS 2514 (751)", "group": "gnss", "lat": 1.7242584198841062, "lon": -40.31646059161236, "alt_km": 19153.206753870785, "timestamp": "2025-12-27T12:55:14.746747+00:00", "meta": {"OBJECT_NAME": "COSMOS 2514 (751)", "OBJECT_ID": "2016-008A", "EPOCH": "2025-12-27T01:35:56.250528", "MEAN_MOTION": 2.13102531, "ECCENTRICITY": 0.00114841, "INCLINATION": 65.1254, "RA_OF_ASC_NODE": 318.9135, "ARG_OF_PERICENTER": 219.9795, "MEAN_ANOMALY": 139.9404, "EPHEMERIS_TYPE": 0, "CLASSIFICATION_TYPE": "U", "NORAD_CAT_ID": 41330, "ELEMENT_SET_NO": 999, "REV_AT_EPOCH": 7695, "BSTAR": 0, "MEAN_MOTION_DOT": -3.7e-07, "MEAN_MOTION_DDOT": 0}, "tle": {"line1": "1 41330U 16008A   25361.06662327 -.00000037  00000+0  00000+0 0  9994", "line2": "2 41330  65.1254 318.9135 0011484 219.9795 139.9404  2.13102531 76951"}}, "geometry": {"type": "Point", "coordinates": [-40.31646059161236, 1.7242584198841062]}}, {"type": "Feature", "properties": {"norad_id": 41384, "name": "IRNSS-1F", "group": "gnss", "lat": -3.29077463578848, "lon": -37.38946046262234, "alt_km": 35718.32549341517, "timestamp": "2025-12-27T12:55:14.746772+00:00", "meta": {"OBJECT_NAME": "IRNSS-1F", "OBJECT_ID": "2016-015A", "EPOCH": "2025-12-26T23:27:37.637280", "MEAN_MOTION": 1.00265593, "ECCENTRICITY": 0.00217373, "INCLINATION": 4.917, "RA_OF_ASC_NODE": 100.9484, "ARG_OF_PERICENTER": 181.1315, "MEAN_ANOMALY": 198.0284, "EPHEMERIS_TYPE": 0, "CLASSIFICATION_TYPE": "U", "NORAD_CAT_ID": 41384, "ELEMENT_SET_NO": 999, "REV_AT_EPOCH": 3594, "BSTAR": 0, "MEAN_MOTION_DOT": 1.79e-06, "MEAN_MOTION_DDOT": 0}, "tle": {"line1": "1 41384U 16015A   25360.97751895  .00000179  00000+0  00000+0 0  9995", "line2": "2 41384   4.9170 100.9484 0021737 181.1315 198.0284  1.00265593 35943"}}, "geometry": {"type": "Point", "coordinates": [-37.38946046262234, -3.29077463578848]}}, {"type": "Feature", "properties": {"norad_id": 41434, "name": "BEIDOU-2 IGSO-6 (C13)", "group": "gnss", "lat": -13.23550871013011, "lon": 31.967750071798516, "alt_km": 35886.865876063144, "timestamp": "2025-12-27T12:55:14.746786+00:00", "meta": {"OBJECT_NAME": "BEIDOU-2 IGSO-6 (C13)", "OBJECT_ID": "2016-021A", "EPOCH": "2025-12-25T02:21:14.682240", "MEAN_MOTION": 1.00290736, "ECCENTRICITY": 0.00608236, "INCLINATION": 59.9818, "RA_OF_ASC_NODE": 39.7747, "ARG_OF_PERICENTER": 230.5129, "MEAN_ANOMALY": 312.5474, "EPHEMERIS_TYPE": 0, "CLASSIFICATION_TYPE": "U", "NORAD_CAT_ID": 41434, "ELEMENT_SET_NO": 999, "REV_AT_EPOCH": 3573, "BSTAR": 0, "MEAN_MOTION_DOT": -1.35e-06, "MEAN_MOTION_DDOT": 0}, "tle": {"line1": "1 41434U 16021A   25359.09808660 -.00000135  00000+0  00000+0 0  9995", "line2": "2 41434  59.9818  39.7747 0060823 230.5129 312.5474  1.00290736 35738"}}, "geometry": {"type": "Point", "coordinates": [31.967750071798516, -13.23550871013011]}}]}